NORAD_CAT_ID,OBJECT_NAME,OBJECT_TYPE,EPOCH,MEAN_MOTION,ECCENTRICITY,INCLINATION,RA_OF_ASC_NODE,ARG_OF_PERICENTER,MEAN_ANOMALY,BSTAR,MEAN_MOTION_DOT,MEAN_MOTION_DDOT,TLE_LINE0,TLE_LINE1,TLE_LINE2,SEMIMAJOR_AXIS,PERIOD,APOGEE,PERIGEE,DECAYED
51133.0,STARLINK-3356,PAYLOAD,2024-02-04 12:28:08,15.08850127,0.0001707,53.2173,129.6173,78.5252,281.5932,-2.3502e-05,-6.62e-06,0.0,0 STARLINK-3356,1 51133U 22005AF  24035.51953723 -.00000662  00000-0 -23502-4 0  9993,2 51133  53.2173 129.6173 0001707  78.5252 281.5932 15.08850127113360,6917.849,95.437,540.895,538.534,0.0
51133.0,STARLINK-3356,PAYLOAD,2024-02-05 12:18:55,15.08841449,0.0001599,53.2178,125.1557,96.3105,263.8069,1.6536e-05,-2.5e-07,0.0,0 STARLINK-3356,1 51133U 22005AF  24036.51313866 -.00000025  00000-0  16536-4 0  9993,2 51133  53.2178 125.1557 0001599  96.3105 263.8069 15.08841449114638,6917.876,95.437,540.847,538.635,0.0
51133.0,STARLINK-3356,PAYLOAD,2024-02-06 12:09:42,15.08845469,0.0001663,53.2175,120.6926,109.1326,250.9847,-2.1866e-05,-6.36e-06,0.0,0 STARLINK-3356,1 51133U 22005AF  24037.50673650 -.00000636  00000-0 -21866-4 0  9994,2 51133  53.2175 120.6926 0001663 109.1326 250.9847 15.08845469113664,6917.864,95.437,540.879,538.578,0.0
51133.0,STARLINK-3356,PAYLOAD,2024-02-07 12:00:28,15.0884412,0.0001428,53.2166,116.2356,95.2269,264.8886,6.1942e-05,6.98e-06,0.0,0 STARLINK-3356,1 51133U 22005AF  24038.50033550  .00000698  00000-0  61942-4 0  9999,2 51133  53.2166 116.2356 0001428  95.2269 264.8886 15.08844120114933,6917.868,95.437,540.721,538.745,0.0
51133.0,STARLINK-3356,PAYLOAD,2024-02-07 21:32:48,15.08835943,0.0001338,53.2157,114.4492,89.9893,270.1253,1.1494e-05,-1.05e-06,0.0,0 STARLINK-3356,1 51133U 22005AF  24038.89778216 -.00000105  00000-0  11494-4 0  9997,2 51133  53.2157 114.4492 0001338  89.9893 270.1253 15.08835943113870,6917.893,95.438,540.683,538.832,0.0
51133.0,STARLINK-3356,PAYLOAD,2024-02-08 11:51:17,15.0883339,0.0001741,53.2179,111.7769,108.892,251.2261,-1.7848e-05,-5.72e-06,0.0,0 STARLINK-3356,1 51133U 22005AF  24039.49394849 -.00000572  00000-0 -17848-4 0  9998,2 51133  53.2179 111.7769 0001741 108.8920 251.2261 15.08833390113964,6917.901,95.438,540.97,538.561,0.0
51133.0,STARLINK-3356,PAYLOAD,2024-02-09 03:45:08,15.08839417,0.0001566,53.218,108.8032,100.1728,259.9441,4.2906e-05,3.95e-06,0.0,0 STARLINK-3356,1 51133U 22005AF  24040.15634469  .00000395  00000-0  42906-4 0  9992,2 51133  53.2180 108.8032 0001566 100.1728 259.9441 15.08839417115189,6917.882,95.438,540.831,538.664,0.0
51133.0,STARLINK-3356,PAYLOAD,2024-02-09 10:06:40,15.08843681,0.0001553,53.2175,107.6126,96.7988,263.3181,-6.7349e-06,-3.95e-06,0.0,0 STARLINK-3356,1 51133U 22005AF  24040.42130468 -.00000395  00000-0 -67349-5 0  9993,2 51133  53.2175 107.6126 0001553  96.7988 263.3181 15.08843681114107,6917.869,95.437,540.808,538.66,0.0
51133.0,STARLINK-3356,PAYLOAD,2024-02-10 11:32:51,15.08836912,0.0001526,53.2168,102.8534,71.5166,288.5992,3.1208e-05,2.09e-06,0.0,0 STARLINK-3356,1 51133U 22005AF  24041.48115280  .00000209  00000-0  31208-4 0  9991,2 51133  53.2168 102.8534 0001526  71.5166 288.5992 15.08836912115387,6917.89,95.438,540.81,538.699,0.0
51133.0,STARLINK-3356,PAYLOAD,2024-02-11 11:23:38,15.08840464,0.0001702,53.2165,98.3942,61.1658,298.9504,6.9827e-05,8.23e-06,0.0,0 STARLINK-3356,1 51133U 22005AF  24042.47475081  .00000823  00000-0  69827-4 0  9999,2 51133  53.2165  98.3942 0001702  61.1658 298.9504 15.08840464114417,6917.879,95.438,540.921,538.567,0.0
51133.0,STARLINK-3356,PAYLOAD,2024-02-12 03:17:29,15.0884489,0.0001532,53.2165,95.4183,63.8026,296.3124,0.00010486,1.381e-05,0.0,0 STARLINK-3356,1 51133U 22005AF  24043.13714395  .00001381  00000-0  10486-3 0  9993,2 51133  53.2165  95.4183 0001532  63.8026 296.3124 15.08844890115633,6917.865,95.437,540.79,538.671,0.0
51133.0,STARLINK-3356,PAYLOAD,2024-02-12 08:03:38,15.08847673,0.0001589,53.217,94.5273,65.0244,295.0914,0.00014333,1.994e-05,0.0,0 STARLINK-3356,1 51133U 22005AF  24043.33586072  .00001994  00000-0  14333-3 0  9999,2 51133  53.2170  94.5273 0001589  65.0244 295.0914 15.08847673114541,6917.857,95.437,540.821,538.623,0.0
51133.0,STARLINK-3356,PAYLOAD,2024-02-13 07:54:26,15.08842033,0.0001456,53.2172,90.0635,107.8052,252.3099,-9.2385e-05,-1.758e-05,0.0,0 STARLINK-3356,1 51133U 22005AF  24044.32947012 -.00001758  00000-0 -92385-4 0  9998,2 51133  53.2172  90.0635 0001456 107.8052 252.3099 15.08842033115817,6917.874,95.437,540.746,538.732,0.0
51133.0,STARLINK-3356,PAYLOAD,2024-02-14 09:20:35,15.08850165,0.0001565,53.2168,85.3121,87.6343,272.4828,0.00010962,1.457e-05,0.0,0 STARLINK-3356,1 51133U 22005AF  24045.38930016  .00001457  00000-0  10962-3 0  9995,2 51133  53.2168  85.3121 0001565  87.6343 272.4828 15.08850165115973,6917.849,95.437,540.797,538.632,0.0
51133.0,STARLINK-3356,PAYLOAD,2024-02-15 02:49:51,15.08832767,0.0001543,53.2182,82.0372,92.8513,267.2655,3.425e-05,2.57e-06,0.0,0 STARLINK-3356,1 51133U 22005AF  24046.11795542  .00000257  00000-0  34250-4 0  9994,2 51133  53.2182  82.0372 0001543  92.8513 267.2655 15.08832767116085,6917.902,95.438,540.835,538.7,0.0
51133.0,STARLINK-3356,PAYLOAD,2024-02-15 07:36:00,15.08832977,0.0001584,53.2171,81.1465,101.2472,258.8698,5.2737e-05,5.51e-06,0.0,0 STARLINK-3356,1 51133U 22005AF  24046.31667525  .00000551  00000-0  52737-4 0  9992,2 51133  53.2171  81.1465 0001584 101.2472 258.8698 15.08832977114994,6917.902,95.438,540.863,538.671,0.0
51133.0,STARLINK-3356,PAYLOAD,2024-02-15 18:43:42,15.0883641,0.0001513,53.2175,79.0631,91.2727,268.8438,6.1814e-05,6.96e-06,0.0,0 STARLINK-3356,1 51133U 22005AF  24046.78035464  .00000696  00000-0  61814-4 0  9990,2 51133  53.2175  79.0631 0001513  91.2727 268.8438 15.08836410115060,6917.891,95.438,540.803,538.71,0.0
51133.0,STARLINK-3356,PAYLOAD,2024-02-16 09:02:11,15.08842449,0.0001622,53.2176,76.3893,103.6422,256.4751,-4.8843e-05,-1.065e-05,0.0,0 STARLINK-3356,1 51133U 22005AF  24047.37651621 -.00001065  00000-0 -48843-4 0  9995,2 51133  53.2176  76.3893 0001622 103.6422 256.4751 15.08842449116276,6917.873,95.437,540.86,538.616,0.0
51133.0,STARLINK-3356,PAYLOAD,2024-02-17 10:28:21,15.08839258,0.0001705,53.2178,71.6314,107.3531,252.7648,7.8628e-05,9.64e-06,0.0,0 STARLINK-3356,1 51133U 22005AF  24048.43635693  .00000964  00000-0  78628-4 0  9993,2 51133  53.2178  71.6314 0001705 107.3531 252.7648 15.08839258116434,6917.883,95.438,540.927,538.568,0.0
51133.0,STARLINK-3356,PAYLOAD,2024-02-17 18:25:17,15.08835244,0.000166,53.2181,70.1434,99.1029,261.0151,3.5239e-05,2.73e-06,0.0,0 STARLINK-3356,1 51133U 22005AF  24048.76756165  .00000273  00000-0  35239-4 0  9991,2 51133  53.2181  70.1434 0001660  99.1029 261.0151 15.08835244115369,6917.895,95.438,540.908,538.612,0.0
51133.0,STARLINK-3356,PAYLOAD,2024-02-18 10:19:07,15.08848852,0.0001679,53.2185,67.1658,82.9285,277.1898,8.7387e-05,1.103e-05,0.0,0 STARLINK-3356,1 51133U 22005AF  24049.42995350  .00001103  00000-0  87387-4 0  9990,2 51133  53.2185  67.1658 0001679  82.9285 277.1898 15.08848852116581,6917.853,95.437,540.88,538.557,0.0
51133.0,STARLINK-3356,PAYLOAD,2024-02-18 18:16:03,15.08843959,0.0001673,53.218,65.6817,88.8054,271.3129,9.631e-05,1.245e-05,0.0,0 STARLINK-3356,1 51133U 22005AF  24049.76115532  .00001245  00000-0  96310-4 0  9996,2 51133  53.2180  65.6817 0001673  88.8054 271.3129 15.08843959115517,6917.868,95.437,540.891,538.576,0.0
51133.0,STARLINK-3356,PAYLOAD,2024-02-19 00:37:36,15.08842088,0.0002043,53.2177,64.4922,88.8525,271.2702,4.0289e-05,3.53e-06,0.0,0 STARLINK-3356,1 51133U 22005AF  24050.02611970  .00000353  00000-0  40289-4 0  9997,2 51133  53.2177  64.4922 0002043  88.8525 271.2702 15.08842088116678,6917.874,95.437,541.152,538.326,0.0
51133.0,STARLINK-3356,PAYLOAD,2024-02-19 08:34:32,15.08844048,0.0001452,53.2165,63.0061,96.095,264.0208,2.7965e-05,1.57e-06,0.0,0 STARLINK-3356,1 51133U 22005AF  24050.35731683  .00000157  00000-0  27965-4 0  9995,2 51133  53.2165  63.0061 0001452  96.0950 264.0208 15.08844048115601,6917.868,95.437,540.737,538.729,0.0
51133.0,STARLINK-3356,PAYLOAD,2024-02-19 18:06:51,15.08837656,0.0001404,53.2163,61.22,98.1351,261.9801,-1.436e-05,-5.16e-06,0.0,0 STARLINK-3356,1 51133U 22005AF  24050.75476155 -.00000516  00000-0 -14360-4 0  9995,2 51133  53.2163  61.2200 0001404  98.1351 261.9801 15.08837656116781,6917.888,95.438,540.724,538.781,0.0
51133.0,STARLINK-3356,PAYLOAD,2024-02-20 06:49:56,15.08838269,0.0001709,53.2182,58.8408,91.1557,268.9631,1.0501e-05,-1.21e-06,0.0,0 STARLINK-3356,1 51133U 22005AF  24051.28468238 -.00000121  00000-0  10501-4 0  9991,2 51133  53.2182  58.8408 0001709  91.1557 268.9631 15.08838269115747,6917.886,95.438,540.933,538.568,0.0
51133.0,STARLINK-3356,PAYLOAD,2024-02-20 17:57:38,15.08845879,0.0001614,53.2181,56.7593,89.7491,270.3686,-2.9902e-05,-7.64e-06,0.0,0 STARLINK-3356,1 51133U 22005AF  24051.74835794 -.00000764  00000-0 -29902-4 0  9996,2 51133  53.2181  56.7593 0001614  89.7491 270.3686 15.08845879115813,6917.862,95.437,540.844,538.611,0.0
51133.0,STARLINK-3356,PAYLOAD,2024-02-21 03:29:57,15.08836054,0.0001375,53.2169,54.9756,89.5145,270.6005,0.00012618,1.721e-05,0.0,0 STARLINK-3356,1 51133U 22005AF  24052.14579898  .00001721  00000-0  12618-3 0  9998,2 51133  53.2169  54.9756 0001375  89.5145 270.6005 15.08836054116991,6917.892,95.438,540.709,538.806,0.0
51133.0,STARLINK-3356,PAYLOAD,2024-02-21 06:40:43,15.0883885,0.0001295,53.2184,54.3811,93.4698,266.6442,0.00018206,2.611e-05,0.0,0 STARLINK-3356,1 51133U 22005AF  24052.27827576  .00002611  00000-0  18206-3 0  9999,2 51133  53.2184  54.3811 0001295  93.4698 266.6442 15.08838850115896,6917.884,95.438,540.645,538.853,0.0
51133.0,STARLINK-3356,PAYLOAD,2024-02-22 03:20:44,15.08832895,0.0001624,53.2175,50.516,87.9738,272.144,2.7295e-05,1.46e-06,0.0,0 STARLINK-3356,1 51133U 22005AF  24053.13940522  .00000146  00000-0  27295-4 0  9992,2 51133  53.2175  50.5160 0001624  87.9738 272.1440 15.08832895117143,6917.902,95.438,540.891,538.644,0.0
